[{"OBJECT_NAME":"STARLINK-1139","OBJECT_ID":"2020-006X","EPOCH":"2021-09-10T21:01:18.287904","MEAN_MOTION":15.06389367,"ECCENTRICITY":0.0001965,"INCLINATION":53.0554,"RA_OF_ASC_NODE":72.5285,"ARG_OF_PERICENTER":87.7427,"MEAN_ANOMALY":272.3787,"EPHEMERIS_TYPE":0,"CLASSIFICATION_TYPE":"U","NORAD_CAT_ID":45065,"ELEMENT_SET_NO":999,"REV_AT_EPOCH":8943,"BSTAR":-3.1393e-5,"MEAN_MOTION_DOT":-7.49e-6,"MEAN_MOTION_DDOT":0},{"OBJECT_NAME":"STARLINK-1145","OBJECT_ID":"2020-006Y","EPOCH":"2021-09-10T21:59:41.297280","MEAN_MOTION":15.06390037,"ECCENTRICITY":0.0001748,"INCLINATION":53.0552,"RA_OF_ASC_NODE":72.3426,"ARG_OF_PERICENTER":100.959,"MEAN_ANOMALY":259.1596,"EPHEMERIS_TYPE":0,"CLASSIFICATION_TYPE":"U","NORAD_CAT_ID":45066,"ELEMENT_SET_NO":999,"REV_AT_EPOCH":8943,"BSTAR":-4.3012e-5,"MEAN_MOTION_DOT":-9.22e-6,"MEAN_MOTION_DDOT":0},{"OBJECT_NAME":"STARLINK-1150","OBJECT_ID":"2020-006Z","EPOCH":"2021-09-10T20:45:22.184640","MEAN_MOTION":15.06397034,"ECCENTRICITY":0.0001797,"INCLINATION":53.054,"RA_OF_ASC_NODE":72.57,"ARG_OF_PERICENTER":80.7267,"MEAN_ANOMALY":279.3925,"EPHEMERIS_TYPE":0,"CLASSIFICATION_TYPE":"U","NORAD_CAT_ID":45067,"ELEMENT_SET_NO":999,"REV_AT_EPOCH":8943,"BSTAR":4.9683e-5,"MEAN_MOTION_DOT":4.58e-6,"MEAN_MOTION_DDOT":0},{"OBJECT_NAME":"STARLINK-1161","OBJECT_ID":"2020-006AA","EPOCH":"2021-09-10T22:05:01.331520","MEAN_MOTION":15.06398155,"ECCENTRICITY":0.0001522,"INCLINATION":53.0549,"RA_OF_ASC_NODE":72.3321,"ARG_OF_PERICENTER":105.2666,"MEAN_ANOMALY":254.8492,"EPHEMERIS_TYPE":0,"CLASSIFICATION_TYPE":"U","NORAD_CAT_ID":45068,"ELEMENT_SET_NO":999,"REV_AT_EPOCH":8943,"BSTAR":3.8589e-5,"MEAN_MOTION_DOT":2.93e-6,"MEAN_MOTION_DDOT":0},{"OBJECT_NAME":"STARLINK-1167","OBJECT_ID":"2020-006AD","EPOCH":"2021-09-10T19:57:36.309600","MEAN_MOTION":15.0639476,"ECCENTRICITY":0.0001993,"INCLINATION":53.055,"RA_OF_ASC_NODE":72.7223,"ARG_OF_PERICENTER":94.4849,"MEAN_ANOMALY":265.6368,"EPHEMERIS_TYPE":0,"CLASSIFICATION_TYPE":"U","NORAD_CAT_ID":45071,"ELEMENT_SET_NO":999,"REV_AT_EPOCH":8942,"BSTAR":1.0341e-6,"MEAN_MOTION_DOT":-2.66e-6,"MEAN_MOTION_DDOT":0},{"OBJECT_NAME":"STARLINK-1168","OBJECT_ID":"2020-006AE","EPOCH":"2021-09-10T20:02:54.845664","MEAN_MOTION":15.06400998,"ECCENTRICITY":0.0001909,"INCLINATION":53.0553,"RA_OF_ASC_NODE":72.7133,"ARG_OF_PERICENTER":91.2294,"MEAN_ANOMALY":268.8913,"EPHEMERIS_TYPE":0,"CLASSIFICATION_TYPE":"U","NORAD_CAT_ID":45072,"ELEMENT_SET_NO":999,"REV_AT_EPOCH":8942,"BSTAR":8.2133e-5,"MEAN_MOTION_DOT":9.42e-6,"MEAN_MOTION_DDOT":0},{"OBJECT_NAME":"STARLINK-1170","OBJECT_ID":"2020-006AF","EPOCH":"2021-09-10T20:40:04.189440","MEAN_MOTION":15.0639395,"ECCENTRICITY":0.0001864,"INCLINATION":53.0548,"RA_OF_ASC_NODE":72.584,"ARG_OF_PERICENTER":106.9701,"MEAN_ANOMALY":253.1492,"EPHEMERIS_TYPE":0,"CLASSIFICATION_TYPE":"U","NORAD_CAT_ID":45073,"ELEMENT_SET_NO":999,"REV_AT_EPOCH":8942,"BSTAR":-2.6609e-5,"MEAN_MOTION_DOT":-6.78e-6,"MEAN_MOTION_DDOT":0},{"OBJECT_NAME":"STARLINK-1172","OBJECT_ID":"2020-006AG","EPOCH":"2021-09-10T21:54:22.313664","MEAN_MOTION":15.06398029,"ECCENTRICITY":0.0001908,"INCLINATION":53.0554,"RA_OF_ASC_NODE":72.3618,"ARG_OF_PERICENTER":92.446,"MEAN_ANOMALY":267.6748,"EPHEMERIS_TYPE":0,"CLASSIFICATION_TYPE":"U","NORAD_CAT_ID":45074,"ELEMENT_SET_NO":999,"REV_AT_EPOCH":8943,"BSTAR":-1.7932e-5,"MEAN_MOTION_DOT":-5.49e-6,"MEAN_MOTION_DDOT":0},{"OBJECT_NAME":"STARLINK-1174","OBJECT_ID":"2020-006AH","EPOCH":"2021-09-10T21:06:36.614880","MEAN_MOTION":15.06392036,"ECCENTRICITY":0.0001823,"INCLINATION":53.0556,"RA_OF_ASC_NODE":72.5097,"ARG_OF_PERICENTER":94.5836,"MEAN_ANOMALY":265.5361,"EPHEMERIS_TYPE":0,"CLASSIFICATION_TYPE":"U","NORAD_CAT_ID":45075,"ELEMENT_SET_NO":999,"REV_AT_EPOCH":8943,"BSTAR":-3.4002e-5,"MEAN_MOTION_DOT":-7.88e-6,"MEAN_MOTION_DDOT":0},{"OBJECT_NAME":"STARLINK-1180","OBJECT_ID":"2020-006AJ","EPOCH":"2021-09-10T21:17:14.203680","MEAN_MOTION":15.06370679,"ECCENTRICITY":0.0001823,"INCLINATION":53.0545,"RA_OF_ASC_NODE":72.472,"ARG_OF_PERICENTER":99.0147,"MEAN_ANOMALY":261.1049,"EPHEMERIS_TYPE":0,"CLASSIFICATION_TYPE":"U","NORAD_CAT_ID":45076,"ELEMENT_SET_NO":999,"REV_AT_EPOCH":8943,"BSTAR":0.00043564,"MEAN_MOTION_DOT":6.208e-5,"MEAN_MOTION_DDOT":0},{"OBJECT_NAME":"STARLINK-1182","OBJECT_ID":"2020-006AK","EPOCH":"2021-09-10T21:08:00.756384","MEAN_MOTION":15.39875455,"ECCENTRICITY":0.0001307,"INCLINATION":53.0547,"RA_OF_ASC_NODE":63.0536,"ARG_OF_PERICENTER":94.6748,"MEAN_ANOMALY":265.4405,"EPHEMERIS_TYPE":0,"CLASSIFICATION_TYPE":"U","NORAD_CAT_ID":45077,"ELEMENT_SET_NO":999,"REV_AT_EPOCH":8956,"BSTAR":-7.5481e-6,"MEAN_MOTION_DOT":-7.05e-6,"MEAN_MOTION_DDOT":0},{"OBJECT_NAME":"STARLINK-1177","OBJECT_ID":"2020-006AL","EPOCH":"2021-09-10T20:08:13.187328","MEAN_MOTION":15.06407067,"ECCENTRICITY":0.0001576,"INCLINATION":53.0556,"RA_OF_ASC_NODE":72.673,"ARG_OF_PERICENTER":87.3069,"MEAN_ANOMALY":272.81,"EPHEMERIS_TYPE":0,"CLASSIFICATION_TYPE":"U","NORAD_CAT_ID":45078,"ELEMENT_SET_NO":999,"REV_AT_EPOCH":8941,"BSTAR":0.00019013,"MEAN_MOTION_DOT":2.552e-5,"MEAN_MOTION_DDOT":0},{"OBJECT_NAME":"STARLINK-1149","OBJECT_ID":"2020-006AM","EPOCH":"2021-09-10T21:11:55.113792","MEAN_MOTION":15.0639237,"ECCENTRICITY":0.0001999,"INCLINATION":53.0559,"RA_OF_ASC_NODE":72.4997,"ARG_OF_PERICENTER":92.4487,"MEAN_ANOMALY":267.6731,"EPHEMERIS_TYPE":0,"CLASSIFICATION_TYPE":"U","NORAD_CAT_ID":45079,"ELEMENT_SET_NO":999,"REV_AT_EPOCH":8942,"BSTAR":7.1862e-5,"MEAN_MOTION_DOT":7.89e-6,"MEAN_MOTION_DDOT":0},{"OBJECT_NAME":"STARLINK-1153","OBJECT_ID":"2020-006AN","EPOCH":"2021-09-10T21:22:31.629504","MEAN_MOTION":15.06400425,"ECCENTRICITY":0.0001492,"INCLINATION":53.0544,"RA_OF_ASC_NODE":72.4563,"ARG_OF_PERICENTER":101.1121,"MEAN_ANOMALY":259.0035,"EPHEMERIS_TYPE":0,"CLASSIFICATION_TYPE":"U","NORAD_CAT_ID":45080,"ELEMENT_SET_NO":999,"REV_AT_EPOCH":8943,"BSTAR":-3.2673e-5,"MEAN_MOTION_DOT":-7.68e-6,"MEAN_MOTION_DDOT":0},{"OBJECT_NAME":"STARLINK-1151","OBJECT_ID":"2020-006AP","EPOCH":"2021-09-10T20:50:40.988544","MEAN_MOTION":15.06399002,"ECCENTRICITY":0.0002062,"INCLINATION":53.0552,"RA_OF_ASC_NODE":72.5579,"ARG_OF_PERICENTER":89.1148,"MEAN_ANOMALY":271.0078,"EPHEMERIS_TYPE":0,"CLASSIFICATION_TYPE":"U","NORAD_CAT_ID":45081,"ELEMENT_SET_NO":999,"REV_AT_EPOCH":8943,"BSTAR":-5.4852e-6,"MEAN_MOTION_DOT":-3.63e-6,"MEAN_MOTION_DDOT":0},{"OBJECT_NAME":"STARLINK-1160","OBJECT_ID":"2020-006AQ","EPOCH":"2021-09-10T20:34:45.756192","MEAN_MOTION":15.06404227,"ECCENTRICITY":0.0001999,"INCLINATION":53.0553,"RA_OF_ASC_NODE":72.6122,"ARG_OF_PERICENTER":90.4045,"MEAN_ANOMALY":269.7174,"EPHEMERIS_TYPE":0,"CLASSIFICATION_TYPE":"U","NORAD_CAT_ID":45082,"ELEMENT_SET_NO":999,"REV_AT_EPOCH":8942,"BSTAR":0.00012311,"MEAN_MOTION_DOT":1.553e-5,"MEAN_MOTION_DDOT":0},{"OBJECT_NAME":"STARLINK-1190","OBJECT_ID":"2020-006AR","EPOCH":"2021-09-10T19:44:19.801824","MEAN_MOTION":15.06402695,"ECCENTRICITY":0.0001804,"INCLINATION":53.0547,"RA_OF_ASC_NODE":92.7644,"ARG_OF_PERICENTER":87.0102,"MEAN_ANOMALY":273.1093,"EPHEMERIS_TYPE":0,"CLASSIFICATION_TYPE":"U","NORAD_CAT_ID":45083,"ELEMENT_SET_NO":999,"REV_AT_EPOCH":8914,"BSTAR":0.00010669,"MEAN_MOTION_DOT":1.308e-5,"MEAN_MOTION_DDOT":0},{"OBJECT_NAME":"STARLINK-1173","OBJECT_ID":"2020-006AS","EPOCH":"2021-09-10T20:53:20.686848","MEAN_MOTION":15.06389781,"ECCENTRICITY":0.0001511,"INCLINATION":53.0552,"RA_OF_ASC_NODE":52.544,"ARG_OF_PERICENTER":100.3677,"MEAN_ANOMALY":259.7483,"EPHEMERIS_TYPE":0,"CLASSIFICATION_TYPE":"U","NORAD_CAT_ID":45084,"ELEMENT_SET_NO":999,"REV_AT_EPOCH":8971,"BSTAR":-3.5487e-5,"MEAN_MOTION_DOT":-8.1e-6,"MEAN_MOTION_DDOT":0},{"OBJECT_NAME":"STARLINK-1179","OBJECT_ID":"2020-006AT","EPOCH":"2021-09-10T20:48:02.091168","MEAN_MOTION":15.06389969,"ECCENTRICITY":0.0001997,"INCLINATION":53.055,"RA_OF_ASC_NODE":52.5542,"ARG_OF_PERICENTER":87.1938,"MEAN_ANOMALY":272.9279,"EPHEMERIS_TYPE":0,"CLASSIFICATION_TYPE":"U","NORAD_CAT_ID":45085,"ELEMENT_SET_NO":999,"REV_AT_EPOCH":8971,"BSTAR":-1.4837e-5,"MEAN_MOTION_DOT":-5.03e-6,"MEAN_MOTION_DDOT":0},{"OBJECT_NAME":"STARLINK-1181","OBJECT_ID":"2020-006AU","EPOCH":"2021-09-10T20:30:48.599424","MEAN_MOTION":15.06806347,"ECCENTRICITY":0.00016,"INCLINATION":53.0033,"RA_OF_ASC_NODE":51.0137,"ARG_OF_PERICENTER":90.3448,"MEAN_ANOMALY":269.7724,"EPHEMERIS_TYPE":0,"CLASSIFICATION_TYPE":"U","NORAD_CAT_ID":45086,"ELEMENT_SET_NO":999,"REV_AT_EPOCH":8963,"BSTAR":0.00017156,"MEAN_MOTION_DOT":2.302e-5,"MEAN_MOTION_DDOT":0},{"OBJECT_NAME":"STARLINK-1185","OBJECT_ID":"2020-006AV","EPOCH":"2021-09-10T20:26:47.780160","MEAN_MOTION":15.06395167,"ECCENTRICITY":0.000192,"INCLINATION":53.0549,"RA_OF_ASC_NODE":52.6215,"ARG_OF_PERICENTER":103.2246,"MEAN_ANOMALY":256.8958,"EPHEMERIS_TYPE":0,"CLASSIFICATION_TYPE":"U","NORAD_CAT_ID":45087,"ELEMENT_SET_NO":999,"REV_AT_EPOCH":8971,"BSTAR":-8.2924e-6,"MEAN_MOTION_DOT":-4.05e-6,"MEAN_MOTION_DDOT":0},{"OBJECT_NAME":"STARLINK-1183","OBJECT_ID":"2020-006AW","EPOCH":"2021-09-10T20:58:38.286336","MEAN_MOTION":15.06402338,"ECCENTRICITY":0.000176,"INCLINATION":53.0553,"RA_OF_ASC_NODE":52.5364,"ARG_OF_PERICENTER":83.0594,"MEAN_ANOMALY":277.0595,"EPHEMERIS_TYPE":0,"CLASSIFICATION_TYPE":"U","NORAD_CAT_ID":45088,"ELEMENT_SET_NO":999,"REV_AT_EPOCH":8971,"BSTAR":0.00012171,"MEAN_MOTION_DOT":1.532e-5,"MEAN_MOTION_DDOT":0},{"OBJECT_NAME":"STARLINK-1136","OBJECT_ID":"2020-006AX","EPOCH":"2021-09-10T21:03:57.877344","MEAN_MOTION":15.06394568,"ECCENTRICITY":0.0001959,"INCLINATION":53.0558,"RA_OF_ASC_NODE":52.5194,"ARG_OF_PERICENTER":97.2836,"MEAN_ANOMALY":262.8375,"EPHEMERIS_TYPE":0,"CLASSIFICATION_TYPE":"U","NORAD_CAT_ID":45089,"ELEMENT_SET_NO":999,"REV_AT_EPOCH":8972,"BSTAR":-3.7754e-5,"MEAN_MOTION_DOT":-8.44e-6,"MEAN_MOTION_DDOT":0}]
